CCSDS_OMM_VERS = 2.0
CREATION_DATE  = 
ORIGINATOR     = 

OBJECT_NAME    = TRANSPORTER-15 CX
OBJECT_ID      = 2025-276CX
CENTER_NAME    = EARTH
REF_FRAME      = TEME
TIME_SYSTEM    = UTC
MEAN_ELEMENT_THEORY = SGP/SGP4

EPOCH          = 2025-12-21T04:02:54.825504
MEAN_MOTION    = 15.18180797
ECCENTRICITY   = .00015914
INCLINATION    = 97.4390
RA_OF_ASC_NODE = 66.8021
ARG_OF_PERICENTER = 141.9428
MEAN_ANOMALY   = 218.1918

EPHEMERIS_TYPE = 0
CLASSIFICATION_TYPE = U
NORAD_CAT_ID   = 66759
ELEMENT_SET_NO = 999
REV_AT_EPOCH   = 340
BSTAR          = .33933126E-3
MEAN_MOTION_DOT = .687E-4
MEAN_MOTION_DDOT = 0

CCSDS_OMM_VERS = 2.0
CREATION_DATE  = 
ORIGINATOR     = 

OBJECT_NAME    = TRANSPORTER-15 CY
OBJECT_ID      = 2025-276CY
CENTER_NAME    = EARTH
REF_FRAME      = TEME
TIME_SYSTEM    = UTC
MEAN_ELEMENT_THEORY = SGP/SGP4

EPOCH          = 2025-12-21T04:02:20.294880
MEAN_MOTION    = 15.18165985
ECCENTRICITY   = .0001582
INCLINATION    = 97.4407
RA_OF_ASC_NODE = 66.8084
ARG_OF_PERICENTER = 117.7453
MEAN_ANOMALY   = 242.3942

EPHEMERIS_TYPE = 0
CLASSIFICATION_TYPE = U
NORAD_CAT_ID   = 66760
ELEMENT_SET_NO = 999
REV_AT_EPOCH   = 340
BSTAR          = .33421765E-3
MEAN_MOTION_DOT = .6762E-4
MEAN_MOTION_DDOT = 0

CCSDS_OMM_VERS = 2.0
CREATION_DATE  = 
ORIGINATOR     = 

OBJECT_NAME    = TRANSPORTER-15 CZ
OBJECT_ID      = 2025-276CZ
CENTER_NAME    = EARTH
REF_FRAME      = TEME
TIME_SYSTEM    = UTC
MEAN_ELEMENT_THEORY = SGP/SGP4

EPOCH          = 2025-12-21T03:59:09.065760
MEAN_MOTION    = 15.18422411
ECCENTRICITY   = .00020652
INCLINATION    = 97.4403
RA_OF_ASC_NODE = 66.8108
ARG_OF_PERICENTER = 123.5401
MEAN_ANOMALY   = 236.6030

EPHEMERIS_TYPE = 0
CLASSIFICATION_TYPE = U
NORAD_CAT_ID   = 66761
ELEMENT_SET_NO = 999
REV_AT_EPOCH   = 340
BSTAR          = .15480697E-3
MEAN_MOTION_DOT = .3118E-4
MEAN_MOTION_DDOT = 0

CCSDS_OMM_VERS = 2.0
CREATION_DATE  = 
ORIGINATOR     = 

OBJECT_NAME    = HYDROGNSS-1
OBJECT_ID      = 2025-276DA
CENTER_NAME    = EARTH
REF_FRAME      = TEME
TIME_SYSTEM    = UTC
MEAN_ELEMENT_THEORY = SGP/SGP4

EPOCH          = 2025-12-21T04:20:00.639744
MEAN_MOTION    = 15.17288407
ECCENTRICITY   = .00012064
INCLINATION    = 97.4416
RA_OF_ASC_NODE = 66.7948
ARG_OF_PERICENTER = 269.9107
MEAN_ANOMALY   = 90.1988

EPHEMERIS_TYPE = 0
CLASSIFICATION_TYPE = U
NORAD_CAT_ID   = 66762
ELEMENT_SET_NO = 999
REV_AT_EPOCH   = 340
BSTAR          = .44325391E-3
MEAN_MOTION_DOT = .8768E-4
MEAN_MOTION_DDOT = 0

CCSDS_OMM_VERS = 2.0
CREATION_DATE  = 
ORIGINATOR     = 

OBJECT_NAME    = HYDROGNSS-2
OBJECT_ID      = 2025-276DB
CENTER_NAME    = EARTH
REF_FRAME      = TEME
TIME_SYSTEM    = UTC
MEAN_ELEMENT_THEORY = SGP/SGP4

EPOCH          = 2025-12-20T04:32:57.777504
MEAN_MOTION    = 15.17256655
ECCENTRICITY   = .00010994
INCLINATION    = 97.4430
RA_OF_ASC_NODE = 65.8296
ARG_OF_PERICENTER = 138.4182
MEAN_ANOMALY   = 221.7136

EPHEMERIS_TYPE = 0
CLASSIFICATION_TYPE = U
NORAD_CAT_ID   = 66763
ELEMENT_SET_NO = 999
REV_AT_EPOCH   = 325
BSTAR          = -.41962283E-2
MEAN_MOTION_DOT = -.82583E-3
MEAN_MOTION_DDOT = 0

CCSDS_OMM_VERS = 2.0
CREATION_DATE  = 
ORIGINATOR     = 

OBJECT_NAME    = TRANSPORTER-15 DC
OBJECT_ID      = 2025-276DC
CENTER_NAME    = EARTH
REF_FRAME      = TEME
TIME_SYSTEM    = UTC
MEAN_ELEMENT_THEORY = SGP/SGP4

EPOCH          = 2025-12-21T04:11:25.076256
MEAN_MOTION    = 15.17678828
ECCENTRICITY   = .00019155
INCLINATION    = 97.4412
RA_OF_ASC_NODE = 66.8008
ARG_OF_PERICENTER = 199.7748
MEAN_ANOMALY   = 160.3411

EPHEMERIS_TYPE = 0
CLASSIFICATION_TYPE = U
NORAD_CAT_ID   = 66764
ELEMENT_SET_NO = 999
REV_AT_EPOCH   = 340
BSTAR          = .26115212E-3
MEAN_MOTION_DOT = .5195E-4
MEAN_MOTION_DDOT = 0

CCSDS_OMM_VERS = 2.0
CREATION_DATE  = 
ORIGINATOR     = 

OBJECT_NAME    = TRANSPORTER-15 DD
OBJECT_ID      = 2025-276DD
CENTER_NAME    = EARTH
REF_FRAME      = TEME
TIME_SYSTEM    = UTC
MEAN_ELEMENT_THEORY = SGP/SGP4

EPOCH          = 2025-12-21T05:29:37.106016
MEAN_MOTION    = 15.18682463
ECCENTRICITY   = .00017861
INCLINATION    = 97.4431
RA_OF_ASC_NODE = 66.8868
ARG_OF_PERICENTER = 122.4224
MEAN_ANOMALY   = 237.7183

EPHEMERIS_TYPE = 0
CLASSIFICATION_TYPE = U
NORAD_CAT_ID   = 66765
ELEMENT_SET_NO = 999
REV_AT_EPOCH   = 341
BSTAR          = .51997483E-3
MEAN_MOTION_DOT = .10722E-3
MEAN_MOTION_DDOT = 0

CCSDS_OMM_VERS = 2.0
CREATION_DATE  = 
ORIGINATOR     = 

OBJECT_NAME    = TRANSPORTER-15 DE
OBJECT_ID      = 2025-276DE
CENTER_NAME    = EARTH
REF_FRAME      = TEME
TIME_SYSTEM    = UTC
MEAN_ELEMENT_THEORY = SGP/SGP4

EPOCH          = 2025-12-21T03:58:11.368704
MEAN_MOTION    = 15.18382395
ECCENTRICITY   = .00019546
INCLINATION    = 97.4371
RA_OF_ASC_NODE = 66.8023
ARG_OF_PERICENTER = 91.0947
MEAN_ANOMALY   = 269.0511

EPHEMERIS_TYPE = 0
CLASSIFICATION_TYPE = U
NORAD_CAT_ID   = 66766
ELEMENT_SET_NO = 999
REV_AT_EPOCH   = 340
BSTAR          = .3025446E-3
MEAN_MOTION_DOT = .6153E-4
MEAN_MOTION_DDOT = 0

CCSDS_OMM_VERS = 2.0
CREATION_DATE  = 
ORIGINATOR     = 

OBJECT_NAME    = TRANSPORTER-15 DF
OBJECT_ID      = 2025-276DF
CENTER_NAME    = EARTH
REF_FRAME      = TEME
TIME_SYSTEM    = UTC
MEAN_ELEMENT_THEORY = SGP/SGP4

EPOCH          = 2025-12-21T03:59:13.130016
MEAN_MOTION    = 15.18280576
ECCENTRICITY   = .00019963
INCLINATION    = 97.4377
RA_OF_ASC_NODE = 66.8035
ARG_OF_PERICENTER = 90.6639
MEAN_ANOMALY   = 269.4824

EPHEMERIS_TYPE = 0
CLASSIFICATION_TYPE = U
NORAD_CAT_ID   = 66767
ELEMENT_SET_NO = 999
REV_AT_EPOCH   = 340
BSTAR          = .18771388E-3
MEAN_MOTION_DOT = .378E-4
MEAN_MOTION_DDOT = 0

CCSDS_OMM_VERS = 2.0
CREATION_DATE  = 
ORIGINATOR     = 

OBJECT_NAME    = TRANSPORTER-15 DG
OBJECT_ID      = 2025-276DG
CENTER_NAME    = EARTH
REF_FRAME      = TEME
TIME_SYSTEM    = UTC
MEAN_ELEMENT_THEORY = SGP/SGP4

EPOCH          = 2025-12-21T03:56:30.507072
MEAN_MOTION    = 15.18486525
ECCENTRICITY   = .00022038
INCLINATION    = 97.4363
RA_OF_ASC_NODE = 66.8028
ARG_OF_PERICENTER = 81.1784
MEAN_ANOMALY   = 278.9699

EPHEMERIS_TYPE = 0
CLASSIFICATION_TYPE = U
NORAD_CAT_ID   = 66768
ELEMENT_SET_NO = 999
REV_AT_EPOCH   = 340
BSTAR          = .3418657E-3
MEAN_MOTION_DOT = .6983E-4
MEAN_MOTION_DDOT = 0

CCSDS_OMM_VERS = 2.0
CREATION_DATE  = 
ORIGINATOR     = 

OBJECT_NAME    = TRANSPORTER-15 DH
OBJECT_ID      = 2025-276DH
CENTER_NAME    = EARTH
REF_FRAME      = TEME
TIME_SYSTEM    = UTC
MEAN_ELEMENT_THEORY = SGP/SGP4

EPOCH          = 2025-12-21T05:32:30.715584
MEAN_MOTION    = 15.18380474
ECCENTRICITY   = .00026102
INCLINATION    = 97.4425
RA_OF_ASC_NODE = 66.8828
ARG_OF_PERICENTER = 109.1153
MEAN_ANOMALY   = 251.0364

EPHEMERIS_TYPE = 0
CLASSIFICATION_TYPE = U
NORAD_CAT_ID   = 66769
ELEMENT_SET_NO = 999
REV_AT_EPOCH   = 341
BSTAR          = .21172793E-3
MEAN_MOTION_DOT = .4285E-4
MEAN_MOTION_DDOT = 0

CCSDS_OMM_VERS = 2.0
CREATION_DATE  = 
ORIGINATOR     = 

OBJECT_NAME    = TRANSPORTER-15 DJ
OBJECT_ID      = 2025-276DJ
CENTER_NAME    = EARTH
REF_FRAME      = TEME
TIME_SYSTEM    = UTC
MEAN_ELEMENT_THEORY = SGP/SGP4

EPOCH          = 2025-12-21T03:57:06.675840
MEAN_MOTION    = 15.18374728
ECCENTRICITY   = .00030348
INCLINATION    = 97.4455
RA_OF_ASC_NODE = 66.8278
ARG_OF_PERICENTER = 127.7322
MEAN_ANOMALY   = 232.4187

EPHEMERIS_TYPE = 0
CLASSIFICATION_TYPE = U
NORAD_CAT_ID   = 66770
ELEMENT_SET_NO = 999
REV_AT_EPOCH   = 340
BSTAR          = .19937349E-3
MEAN_MOTION_DOT = .403E-4
MEAN_MOTION_DDOT = 0

