TRANSPORTER-15 CX       
1 66759U 25276CX  25355.16869011  .00006870  00000+0  33933-3 0  9991
2 66759  97.4390  66.8021 0001591 141.9428 218.1918 15.18180797  3409
TRANSPORTER-15 CY       
1 66760U 25276CY  25355.16829045  .00006762  00000+0  33422-3 0  9999
2 66760  97.4407  66.8084 0001582 117.7453 242.3942 15.18165985  3406
TRANSPORTER-15 CZ       
1 66761U 25276CZ  25355.16607715  .00003118  00000+0  15481-3 0  9995
2 66761  97.4403  66.8108 0002065 123.5401 236.6030 15.18422411  3409
HYDROGNSS-1             
1 66762U 25276DA  25355.18056296  .00008768  00000+0  44325-3 0  9995
2 66762  97.4416  66.7948 0001206 269.9107  90.1988 15.17288407  3408
HYDROGNSS-2             
1 66763U 25276DB  25354.18955761 -.00082583  00000+0 -41962-2 0  9992
2 66763  97.4430  65.8296 0001099 138.4182 221.7136 15.17256655  3254
TRANSPORTER-15 DC       
1 66764U 25276DC  25355.17459579  .00005195  00000+0  26115-3 0  9995
2 66764  97.4412  66.8008 0001915 199.7748 160.3411 15.17678828  3403
TRANSPORTER-15 DD       
1 66765U 25276DD  25355.22890169  .00010722  00000+0  51997-3 0  9994
2 66765  97.4431  66.8868 0001786 122.4224 237.7183 15.18682463  3414
TRANSPORTER-15 DE       
1 66766U 25276DE  25355.16540936  .00006153  00000+0  30254-3 0  9998
2 66766  97.4371  66.8023 0001954  91.0947 269.0511 15.18382395  3404
TRANSPORTER-15 DF       
1 66767U 25276DF  25355.16612419  .00003780  00000+0  18771-3 0  9998
2 66767  97.4377  66.8035 0001996  90.6639 269.4824 15.18280576  3402
TRANSPORTER-15 DG       
1 66768U 25276DG  25355.16424198  .00006983  00000+0  34187-3 0  9991
2 66768  97.4363  66.8028 0002203  81.1784 278.9699 15.18486525  3405
TRANSPORTER-15 DH       
1 66769U 25276DH  25355.23091106  .00004285  00000+0  21173-3 0  9993
2 66769  97.4425  66.8828 0002610 109.1153 251.0364 15.18380474  3414
TRANSPORTER-15 DJ       
1 66770U 25276DJ  25355.16466060  .00004030  00000+0  19937-3 0  9995
2 66770  97.4455  66.8278 0003034 127.7322 232.4187 15.18374728  3403
